NORAD_CAT_ID,OBJECT_NAME,OBJECT_TYPE,EPOCH,MEAN_MOTION,ECCENTRICITY,INCLINATION,RA_OF_ASC_NODE,ARG_OF_PERICENTER,MEAN_ANOMALY,BSTAR,MEAN_MOTION_DOT,MEAN_MOTION_DDOT,TLE_LINE0,TLE_LINE1,TLE_LINE2,SEMIMAJOR_AXIS,PERIOD,APOGEE,PERIGEE,DECAYED
52659.0,STARLINK-3960,PAYLOAD,2023-01-25 19:55:39,15.08835731,0.0001127999999999,53.2179,226.6579,99.6707,260.4413,6.221199999999999e-05,7.02e-06,0.0,0 STARLINK-3960,1 52659U 22053D   23025.83031630  .00000702  00000-0  62212-4 0  9991,2 52659  53.2179 226.6579 0001128  99.6707 260.4413 15.08835731 39309,6917.893,95.438,540.539,538.9780000000001,0.0
52659.0,STARLINK-3960,PAYLOAD,2023-01-25 23:06:25,15.08838891,0.0001245,53.2175,226.0631,116.9093,243.2027,5.3734e-05,5.67e-06,0.0,0 STARLINK-3960,1 52659U 22053D   23025.96279378  .00000567  00000-0  53734-4 0  9996,2 52659  53.2175 226.0631 0001245 116.9093 243.2027 15.08838891 39310,6917.884,95.438,540.61,538.888,0.0
52659.0,STARLINK-3960,PAYLOAD,2023-01-26 19:46:25,15.08845309,0.0001205999999999,53.2178,222.197,81.9642,278.1487,6.971399999999999e-05,8.22e-06,0.0,0 STARLINK-3960,1 52659U 22053D   23026.82390922  .00000822  00000-0  69714-4 0  9990,2 52659  53.2178 222.1970 0001206  81.9642 278.1487 15.08845309 39458,6917.8640000000005,95.437,540.563,538.895,0.0
52659.0,STARLINK-3960,PAYLOAD,2023-01-27 11:40:17,15.08833431,0.0001190999999999,53.2174,219.2237,80.1085,280.0041,5.3345e-05,5.61e-06,0.0,0 STARLINK-3960,1 52659U 22053D   23027.48631655  .00000561  00000-0  53345-4 0  9997,2 52659  53.2174 219.2237 0001191  80.1085 280.0041 15.08833431 39554,6917.9,95.438,540.589,538.942,0.0
52659.0,STARLINK-3960,PAYLOAD,2023-01-27 19:37:13,15.08836764,0.0001185,53.2176,217.7369,79.2046,280.9079,4.9235e-05,4.96e-06,0.0,0 STARLINK-3960,1 52659U 22053D   23027.81751571  .00000496  00000-0  49235-4 0  9994,2 52659  53.2176 217.7369 0001185  79.2046 280.9079 15.08836764 39590,6917.89,95.438,540.575,538.936,0.0
52659.0,STARLINK-3960,PAYLOAD,2023-01-28 11:31:04,15.08837698,0.0001158,53.2173,214.7631,81.4319,278.6805,2.8455e-05,1.65e-06,0.0,0 STARLINK-3960,1 52659U 22053D   23028.47991602  .00000165  00000-0  28455-4 0  9992,2 52659  53.2173 214.7631 0001158  81.4319 278.6805 15.08837698 39693,6917.887,95.438,540.554,538.951,0.0
52659.0,STARLINK-3960,PAYLOAD,2023-01-28 19:28:00,15.08841297,0.000112,53.2174,213.2765,83.3291,276.7828,2.5329e-05,1.15e-06,0.0,0 STARLINK-3960,1 52659U 22053D   23028.81111386  .00000115  00000-0  25329-4 0  9995,2 52659  53.2174 213.2765 0001120  83.3291 276.7828 15.08841297 39756,6917.876,95.437,540.516,538.967,0.0
52659.0,STARLINK-3960,PAYLOAD,2023-01-28 21:03:23,15.08841767,0.0001134,53.2174,212.9792,82.7463,277.3658,2.8205e-05,1.61e-06,0.0,0 STARLINK-3960,1 52659U 22053D   23028.87735346  .00000161  00000-0  28205-4 0  9996,2 52659  53.2174 212.9792 0001134  82.7463 277.3658 15.08841767 39751,6917.875,95.437,540.524,538.956,0.0
52659.0,STARLINK-3960,PAYLOAD,2023-01-29 17:43:24,15.08836377,0.0001133,53.2177,209.1132,86.4414,273.6707,3.358e-05,2.47e-06,0.0,0 STARLINK-3960,1 52659U 22053D   23029.73847795  .00000247  00000-0  33580-4 0  9991,2 52659  53.2177 209.1132 0001133  86.4414 273.6707 15.08836377 39896,6917.891,95.438,540.54,538.973,0.0
52659.0,STARLINK-3960,PAYLOAD,2023-01-29 19:18:47,15.08837491,0.0001136,53.2178,208.8159,85.3736,274.7386,4.1242e-05,3.69e-06,0.0,0 STARLINK-3960,1 52659U 22053D   23029.80471705  .00000369  00000-0  41242-4 0  9992,2 52659  53.2178 208.8159 0001136  85.3736 274.7386 15.08837491 39893,6917.888,95.438,540.539,538.967,0.0
52659.0,STARLINK-3960,PAYLOAD,2023-01-30 12:48:02,15.08836175,0.000118,53.2183,205.5456,85.3576,274.7551,2.5007e-05,1.1e-06,0.0,0 STARLINK-3960,1 52659U 22053D   23030.53335991  .00000110  00000-0  25007-4 0  9995,2 52659  53.2183 205.5456 0001180  85.3576 274.7551 15.08836175 40001,6917.892,95.438,540.573,538.941,0.0
52659.0,STARLINK-3960,PAYLOAD,2023-01-30 20:44:57,15.08840073,0.0001189,53.2184,204.0587,84.7779,275.3349,3.7328e-05,3.06e-06,0.0,0 STARLINK-3960,1 52659U 22053D   23030.86455738  .00000306  00000-0  37328-4 0  9999,2 52659  53.2184 204.0587 0001189  84.7779 275.3349 15.08840073 40057,6917.88,95.438,540.568,538.923,0.0
52659.0,STARLINK-3960,PAYLOAD,2023-01-31 11:03:26,15.08837013,0.0001203,53.2179,201.3817,83.7143,276.3987,4.085e-05,3.62e-06,0.0,0 STARLINK-3960,1 52659U 22053D   23031.46072014  .00000362  00000-0  40850-4 0  9994,2 52659  53.2179 201.3817 0001203  83.7143 276.3987 15.08837013 40147,6917.89,95.438,540.587,538.922,0.0
52659.0,STARLINK-3960,PAYLOAD,2023-01-31 19:00:21,15.08841781,0.0001216,53.2176,199.8951,83.053,277.06,6.8549e-05,8.03e-06,0.0,0 STARLINK-3960,1 52659U 22053D   23031.79191632  .00000803  00000-0  68549-4 0  9993,2 52659  53.2176 199.8951 0001216  83.0530 277.0600 15.08841781 40193,6917.875,95.437,540.581,538.899,0.0
52659.0,STARLINK-3960,PAYLOAD,2023-02-01 04:32:40,15.08840577,0.0001275,53.2174,198.1108,82.9695,277.1442,6.312e-05,7.17e-06,0.0,0 STARLINK-3960,1 52659U 22053D   23032.18935713  .00000717  00000-0  63120-4 0  9997,2 52659  53.2174 198.1108 0001275  82.9695 277.1442 15.08840577 40267,6917.879,95.438,540.626,538.862,0.0
52659.0,STARLINK-3960,PAYLOAD,2023-02-01 20:26:31,15.08843588,0.000136,53.2171,195.137,82.2732,277.8415,6.636e-05,7.68e-06,0.0,0 STARLINK-3960,1 52659U 22053D   23032.85175455  .00000768  00000-0  66360-4 0  9995,2 52659  53.2171 195.1370 0001360  82.2732 277.8415 15.08843588 40354,6917.869,95.437,540.675,538.794,0.0
52659.0,STARLINK-3960,PAYLOAD,2023-02-02 20:17:19,15.08838239,0.0001458,53.2169,190.6766,82.993,277.1228,6.0609e-06,-1.92e-06,0.0,0 STARLINK-3960,1 52659U 22053D   23033.84535984 -.00000192  00000-0  60609-5 0  9995,2 52659  53.2169 190.6766 0001458  82.9930 277.1228 15.08838239 40515,6917.886,95.438,540.759,538.742,0.0
52659.0,STARLINK-3960,PAYLOAD,2023-02-03 10:35:47,15.08837518,9.74e-05,53.2186,187.9984,107.2674,252.8424,-2.903e-05,-7.5e-06,0.0,0 STARLINK-3960,1 52659U 22053D   23034.44151975 -.00000750  00000-0 -29030-4 0  9999,2 52659  53.2186 187.9984 0000974 107.2674 252.8424 15.08837518 40598,6917.888,95.438,540.427,539.079,0.0
52659.0,STARLINK-3960,PAYLOAD,2023-02-03 18:32:42,15.08839182,0.0001435,53.2157,186.5127,104.8616,255.2535,3.4515e-05,2.61e-06,0.0,0 STARLINK-3960,1 52659U 22053D   23034.77271728  .00000261  00000-0  34515-4 0  9993,2 52659  53.2157 186.5127 0001435 104.8616 255.2535 15.08839182 40647,6917.883,95.438,540.741,538.755,0.0
52659.0,STARLINK-3960,PAYLOAD,2023-02-04 08:51:11,15.08835574,0.0001133,53.2168,183.8384,88.0524,272.0598,2.8903e-05,1.72e-06,0.0,0 STARLINK-3960,1 52659U 22053D   23035.36888127  .00000172  00000-0  28903-4 0  9991,2 52659  53.2168 183.8384 0001133  88.0524 272.0598 15.08835574 40748,6917.894,95.438,540.543,538.975,0.0
52659.0,STARLINK-3960,PAYLOAD,2023-02-04 13:37:20,15.08838718,0.0001197,53.2165,182.9465,88.0004,272.1126,2.2895e-05,7.7e-07,0.0,0 STARLINK-3960,1 52659U 22053D   23035.56760016  .00000077  00000-0  22895-4 0  9997,2 52659  53.2165 182.9465 0001197  88.0004 272.1126 15.08838718 40761,6917.884,95.438,540.577,538.921,0.0
52659.0,STARLINK-3960,PAYLOAD,2023-02-04 18:23:29,15.08842767,0.0001051,53.2181,182.0524,106.3933,253.7175,0.00010611,1.401e-05,0.0,0 STARLINK-3960,1 52659U 22053D   23035.76631338  .00001401  00000-0  10611-3 0  9997,2 52659  53.2181 182.0524 0001051 106.3933 253.7175 15.08842767 40803,6917.872,95.437,540.464,539.01,0.0
52659.0,STARLINK-3960,PAYLOAD,2023-02-05 02:20:26,15.08833363,0.00013,53.217,180.5674,88.7235,271.3906,1.6959e-05,-1.8e-07,0.0,0 STARLINK-3960,1 52659U 22053D   23036.09752410 -.00000018  00000-0  16959-4 0  9995,2 52659  53.2170 180.5674 0001300  88.7235 271.3906 15.08833363 40850,6917.901,95.438,540.665,538.866,0.0
52659.0,STARLINK-3960,PAYLOAD,2023-02-05 13:28:08,15.08833941,0.0001294,53.2171,178.486,97.3474,262.7666,-5.8559e-06,-3.81e-06,0.0,0 STARLINK-3960,1 52659U 22053D   23036.56120637 -.00000381  00000-0 -58559-5 0  9994,2 52659  53.2171 178.4860 0001294  97.3474 262.7666 15.08833941 40913,6917.899,95.438,540.659,538.869,0.0
52659.0,STARLINK-3960,PAYLOAD,2023-02-05 16:38:54,15.08836451,0.0001181,53.218,177.8916,95.2499,264.8628,1.1788e-05,-1e-06,0.0,0 STARLINK-3960,1 52659U 22053D   23036.69368469 -.00000100  00000-0  11788-4 0  9995,2 52659  53.2180 177.8916 0001181  95.2499 264.8628 15.08836451 40939,6917.891,95.438,540.573,538.939,0.0
52659.0,STARLINK-3960,PAYLOAD,2023-02-06 10:08:08,15.08838896,0.0001206,53.2185,174.6213,100.1077,260.0051,4.2266e-05,3.85e-06,0.0,0 STARLINK-3960,1 52659U 22053D   23037.42232443  .00000385  00000-0  42266-4 0  9998,2 52659  53.2185 174.6213 0001206 100.1077 260.0051 15.08838896 41052,6917.884,95.438,540.583,538.914,0.0
52659.0,STARLINK-3960,PAYLOAD,2023-02-06 13:18:54,15.0884262,0.0001224,53.2187,174.0268,98.3626,261.7504,7.3201e-05,8.77e-06,0.0,0 STARLINK-3960,1 52659U 22053D   23037.55480148  .00000877  00000-0  73201-4 0  9998,2 52659  53.2187 174.0268 0001224  98.3626 261.7504 15.08842620 41068,6917.872,95.437,540.584,538.891,0.0
52659.0,STARLINK-3960,PAYLOAD,2023-02-06 18:05:03,15.08855679,0.0001276,53.219,173.1349,89.3345,270.7793,7.3913e-05,8.89e-06,0.0,0 STARLINK-3960,1 52659U 22053D   23037.75351310  .00000889  00000-0  73913-4 0  9991,2 52659  53.2190 173.1349 0001276  89.3345 270.7793 15.08855679 41100,6917.832,95.437,540.58,538.815,0.0
52659.0,STARLINK-3960,PAYLOAD,2023-02-07 02:02:00,15.08837782,0.0001883,53.2185,171.6461,81.2558,278.8648,7.7007e-05,9.38e-06,0.0,0 STARLINK-3960,1 52659U 22053D   23038.08472675  .00000938  00000-0  77007-4 0  9999,2 52659  53.2185 171.6461 0001883  81.2558 278.8648 15.08837782 41151,6917.887,95.438,541.055,538.45,0.0
52659.0,STARLINK-3960,PAYLOAD,2023-02-07 13:09:41,15.08843366,0.0001441,53.2191,169.5672,87.1861,272.9296,0.00014452,2.013e-05,0.0,0 STARLINK-3960,1 52659U 22053D   23038.54840037  .00002013  00000-0  14452-3 0  9991,2 52659  53.2191 169.5672 0001441  87.1861 272.9296 15.08843366 41216,6917.87,95.437,540.732,538.738,0.0
